KUIPER-00016            
1 63732U 25088J   25357.94156272 -.00000935  00000+0 -93020-4 0  9998
2 63732  51.9028  86.5528 0013137 172.3044 187.8122 14.79950867 36114
KUIPER-00018            
1 63733U 25088K   25357.61636098  .00005884  00000+0  79910-3 0  9999
2 63733  51.9024  76.9483 0013158 195.7637 164.2917 14.79950035 36224
KUIPER-00019            
1 63734U 25088L   25357.48234675 -.00001513  00000+0 -16913-3 0  9991
2 63734  51.9006  76.0849 0008947 205.3540 154.6984 14.79911056 36220
KUIPER-00020            
1 63735U 25088M   25357.95125899  .00001978  00000+0  28835-3 0  9990
2 63735  51.9015  77.9945 0008680 186.6628 173.4220 14.79958973 36445
KUIPER-00021            
1 63736U 25088N   25357.61198292  .00002016  00000+0  29323-3 0  9998
2 63736  51.9014  80.4941 0007036 181.6490 178.4450 14.79977118 36213
KUIPER-00023            
1 63737U 25088P   25357.47585333  .00005076  00000+0  69314-3 0  9992
2 63737  51.9002  82.5617 0011590 201.8849 158.1620 14.79983295 36472
KUIPER-00024            
1 63738U 25088Q   25358.00001156  .00016901  00000+0  22415-2 0  9998
2 63738  51.9025  67.7911 0001246 132.5373  69.8687 14.79912761  4846
KUIPER-00025            
1 63739U 25088R   25358.00001156  .00007655  00000+0  10308-2 0  9993
2 63739  51.9017  76.3070 0000684  30.9072 222.3179 14.79982992  5231
